STARLINK-1932           
1 46770U 20074AH  24131.89851191  .00000955  00000+0  83003-4 0  9996
2 46770  53.0548  94.9949 0001931  83.7448 276.3761 15.06397514195809
STARLINK-1936           
1 46772U 20074AK  24132.29558667  .00003236  00000+0  23591-3 0  9995
2 46772  53.0537  92.6508 0002061  91.5413 268.5812 15.06417273195893
STARLINK-1798           
1 46779U 20074AS  24132.12743766  .00014498  00000+0  99003-3 0  9993
2 46779  53.0558  68.4183 0001536  91.2761 268.8404 15.06407038195913
STARLINK-1832           
1 46780U 20074AT  24132.51444319  .00051168  00000+0  34226-2 0  9990
2 46780  53.0553  66.6795 0001306  89.5842 270.5297 15.06471105195987
STARLINK-1834           
1 46781U 20074AU  24131.86850615  .00007261  00000+0  50559-3 0  9991
2 46781  53.0545  79.5809 0001537  78.8883 281.2279 15.06420060196029
STARLINK-1835           
1 46782U 20074AV  24132.10531999  .00009186  00000+0  63462-3 0  9996
2 46782  53.0546  68.5163 0001653  97.6593 262.4584 15.06410574195914
STARLINK-1851           
1 46783U 20074AW  24132.91667824  .01167895  63240-3  33042-2 0  9995
2 46783  53.0447  32.5285 0006128 217.2270 247.2484 15.92922630196495
STARLINK-1882           
1 46784U 20074AX  24132.80934907  .00002192  00000+0  16597-3 0  9998
2 46784  53.0555  65.5906 0001391  99.3574 260.7572 15.06411128195964
STARLINK-1883           
1 46785U 20074AY  24132.83880536  .00028715  00000+0  19363-2 0  9992
2 46785  53.0555  65.2230 0003100 103.1310 257.0025 15.06446119195986
STARLINK-1893           
1 46786U 20074AZ  24132.75221347  .00027331  00000+0  18464-2 0  9997
2 46786  53.0540  45.6158 0001972  97.5634 262.5579 15.06404073196251
STARLINK-1899           
1 46787U 20074BA  24132.87521123  .00137293  00000+0  34311-2 0  9994
2 46787  53.0486  33.7826 0002462 150.3435 209.7708 15.39166428196435
STARLINK-1929           
1 46788U 20074BB  24132.47205356  .00090102  00000+0  59772-2 0  9993
2 46788  53.0549  46.8721 0001329  76.9732 283.1406 15.06485873196218
STARLINK-1930           
1 46789U 20074BC  24132.56144696  .00008985  00000+0  62073-3 0  9990
2 46789  53.0546  76.6336 0001332  99.7161 260.3979 15.06434552195806
STARLINK-1931           
1 46790U 20074BD  24131.86112697  .00006271  00000+0  43944-3 0  9992
2 46790  53.0540  79.6132 0001275  89.0125 271.1010 15.06403848196011
STARLINK-1933           
1 46791U 20074BE  24132.87106504 -.00000619  00000+0 -22666-4 0  9996
2 46791  53.0555  75.0867 0001914 129.1255 230.9904 15.06390557195840
STARLINK-1934           
1 46792U 20074BF  24132.10163272  .00001221  00000+0  10083-3 0  9995
2 46792  53.0559  68.5317 0001573  97.8921 262.2246 15.06411888195864
STARLINK-1941           
1 46793U 20074BG  24131.59942780  .00003919  00000+0  28182-3 0  9992
2 46793  53.0534  80.7870 0001600  88.0072 272.1100 15.06407103195659
STARLINK-1942           
1 46794U 20074BH  24132.86737754  .00003604  00000+0  26061-3 0  9992
2 46794  53.0558  75.0978 0001895 119.5084 240.6094 15.06414437195853
STARLINK-1944           
1 46796U 20074BK  24132.84249662  .00059081  00000+0  39416-2 0  9995
2 46796  53.0546  65.2080 0005682  86.0066 274.1573 15.06489573195984
STARLINK-1948           
1 46798U 20074BM  24132.87426447  .00010676  00000+0  73389-3 0  9993
2 46798  53.0535  90.0677 0001612  99.4580 260.6591 15.06430834195706
STARLINK-1777           
1 47122U 20088A   24132.49693540  .00038070  00000+0  25555-2 0  9997
2 47122  53.0560  56.7618 0001336 115.5359 244.5768 15.06478191191573
STARLINK-1785           
1 47124U 20088C   24131.95281799  .00012629  00000+0  86507-3 0  9995
2 47124  53.0541  64.2118 0001911 103.6873 256.4329 15.06406707191121
STARLINK-1812           
1 47126U 20088E   24132.52273113  .00009626  00000+0  66357-3 0  9996
2 47126  53.0567  56.6437 0001591  71.6869 288.4293 15.06437707191582
STARLINK-1837           
1 47128U 20088G   24132.87842883  .00024451  00000+0  16523-2 0  9994
2 47128  53.0545  35.0488 0001897 137.0692 223.0445 15.06454183191915
STARLINK-1838           
1 47129U 20088H   24132.17719691  .00035379  00000+0  23813-2 0  9999
2 47129  53.0562  48.1929 0001654 114.4396 245.6766 15.06413091191673
STARLINK-1843           
1 47133U 20088M   24132.50154206  .00075380  00000+0  50113-2 0  9995
2 47133  53.0555  46.7388 0001374  77.7026 282.4116 15.06506257191724
STARLINK-1844           
1 47134U 20088N   24132.80657382  .00000503  00000+0  52647-4 0  9993
2 47134  53.0555  55.3668 0001837  98.3474 261.7723 15.06393787191627
STARLINK-1845           
1 47135U 20088P   24132.49416568  .00021098  00000+0  14288-2 0  9997
2 47135  53.0556  46.7700 0000839 128.6595 231.4469 15.06458338191728
STARLINK-1846           
1 47136U 20088Q   24132.75862441  .00053390  00000+0  35673-2 0  9993
2 47136  53.0557  55.5842 0001185 113.7216 246.3898 15.06491837191615
STARLINK-1849           
1 47137U 20088R   24132.74112608  .00024086  00000+0  16273-2 0  9991
2 47137  53.0551  45.6632 0001108 105.2700 254.8411 15.06469350191751
STARLINK-1850           
1 47138U 20088S   24132.73885493  .00083314  00000+0  55281-2 0  9991
2 47138  53.0554  50.9931 0003366  87.0599 273.0776 15.06520757191685
STARLINK-1852           
1 47139U 20088T   24131.52895525  .00000203  00000+0  32548-4 0  9994
2 47139  53.0552  66.3099 0001643  81.5808 278.5367 15.06397573191356
STARLINK-1854           
1 47141U 20088V   24131.91919132  .00027817  00000+0  18789-2 0  9990
2 47141  53.0562  49.3515 0001234  92.8984 267.2146 15.06402514191330
STARLINK-1856           
1 47143U 20088X   24132.89594425 -.00021893  00000+0 -14553-2 0  9999
2 47143  53.0554  44.9708 0001523  34.3176 325.7911 15.06402529191766
STARLINK-1857           
1 47144U 20088Y   24132.88211191 -.00029185  00000+0 -19501-2 0  9995
2 47144  53.0546  35.0300 0001051  77.6541 282.4566 15.06369462191863
STARLINK-1860           
1 47147U 20088AB  24132.77324602  .00016173  00000+0  10984-2 0  9995
2 47147  53.0561  55.5182 0001329  94.6248 265.4893 15.06527635191579
STARLINK-1861           
1 47148U 20088AC  24132.74850065  .00011464  00000+0  78665-3 0  9999
2 47148  53.0541  45.6300 0001298 113.3637 246.7488 15.06430186191707
STARLINK-1862           
1 47149U 20088AD  24132.51166623  .00011316  00000+0  77637-3 0  9999
2 47149  53.0554  56.6896 0001181  91.7530 268.3594 15.06445765191534
STARLINK-1863           
1 47150U 20088AE  24132.90331768  .00044125  00000+0  29574-2 0  9998
2 47150  53.0551  44.9348 0001525 101.1481 258.9679 15.06466783191732
STARLINK-1864           
1 47151U 20088AF  24132.17259158  .00010653  00000+0  73278-3 0  9990
2 47151  53.0551  58.2146 0001162 109.8445 250.2670 15.06409064191475
STARLINK-1866           
1 47152U 20088AG  24132.48860911  .00014939  00000+0  10184-2 0  9997
2 47152  53.0557  56.7875 0001144  83.9083 276.2036 15.06446969191529
STARLINK-1867           
1 47153U 20088AH  24131.95653739  .00003502  00000+0  25384-3 0  9990
2 47153  53.0544  64.4269 0001770  92.1947 267.9245 15.06406827191129
STARLINK-1869           
1 47155U 20088AK  24132.82774395  .00028115  00000+0  18957-2 0  9995
2 47155  53.0553  65.2749 0001524  94.3511 265.7652 15.06461778191439
STARLINK-1871           
1 47157U 20088AM  24132.20208431  .00000544  00000+0  55457-4 0  9996
2 47157  53.0563  58.0826 0001380  83.8938 276.2208 15.06388526191482
STARLINK-1873           
1 47158U 20088AN  24132.49050154  .00007495  00000+0  52124-3 0  9994
2 47158  53.0549  46.7895 0001351  84.9054 275.2089 15.06419641191665
STARLINK-1876           
1 47161U 20088AR  24132.78904640  .00012854  00000+0  87974-3 0  9994
2 47161  53.0558  45.4476 0000911 110.8073 249.3014 15.06421121191713
STARLINK-1877           
1 47162U 20088AS  24132.51908093  .00000293  00000+0  38596-4 0  9993
2 47162  53.0562  56.6627 0001185  87.4954 272.6170 15.06388542191533
STARLINK-1878           
1 47163U 20088AT  24132.81669551  .00045022  00000+0  30158-2 0  9993
2 47163  53.0562  65.3205 0004565  97.9407 262.2100 15.06472936191435
STARLINK-1879           
1 47164U 20088AU  24132.87106196  .00024860  00000+0  16807-2 0  9993
2 47164  53.0552  35.0806 0000762  94.9614 265.1462 15.06427683191867
STARLINK-1880           
1 47165U 20088AV  24132.81024700  .00040900  00000+0  27413-2 0  9996
2 47165  53.0552  55.3537 0004419  88.3872 271.7623 15.06495743191572
STARLINK-1884           
1 47167U 20088AX  24132.53010641  .00050066  00000+0  33471-2 0  9991
2 47167  53.0551  56.6084 0001958  49.3497 310.7662 15.06500723191582
STARLINK-1887           
1 47170U 20088BA  24132.78074407  .00016752  00000+0  11396-2 0  9998
2 47170  53.0539  55.4860 0001766 110.0403 250.0776 15.06439966191617
STARLINK-1888           
1 47171U 20088BB  24132.46835799  .00078717  00000+0  52291-2 0  9991
2 47171  53.0555  46.8880 0001348 124.0767 236.0351 15.06511496191708
STARLINK-1890           
1 47173U 20088BD  24132.52641855  .00028787  00000+0  19398-2 0  9991
2 47173  53.0552  56.6285 0000459  85.0895 275.0147 15.06472008191571
STARLINK-1891           
1 47174U 20088BE  24132.80287224  .00034176  00000+0  22987-2 0  9996
2 47174  53.0557  55.3870 0001769 112.4563 247.6614 15.06455176191611
STARLINK-1895           
1 47175U 20088BF  24132.86737671  .00025367  00000+0  17165-2 0  9993
2 47175  53.0555  35.0967 0001835 358.6492   1.4491 15.06383736191612
STARLINK-1907           
1 47177U 20088BH  24132.78535422  .00074504  00000+0  49507-2 0  9998
2 47177  53.0556  45.4660 0004895  86.4696 273.6853 15.06523613191751
STARLINK-1912           
1 47178U 20088BJ  24132.83235496 -.00047143  00000+0 -31675-2 0  9991
2 47178  53.0545  55.2540 0001112  17.2940 342.8086 15.06395319191329
STARLINK-1913           
1 47179U 20088BK  24132.55501148  .00027100  00000+0  18300-2 0  9990
2 47179  53.0550  66.5004 0001399  90.0221 270.0928 15.06425563191393
